[{"OBJECT_NAME":"STARLINK-5089","OBJECT_ID":"2023-046BJ","EPOCH":"2026-03-09T10:29:20.263776","MEAN_MOTION":15.03010147,"ECCENTRICITY":0.00015953,"INCLINATION":43.0025,"RA_OF_ASC_NODE":109.142,"ARG_OF_PERICENTER":212.4436,"MEAN_ANOMALY":147.6309,"EPHEMERIS_TYPE":0,"CLASSIFICATION_TYPE":"U","NORAD_CAT_ID":56148,"ELEMENT_SET_NO":999,"REV_AT_EPOCH":16261,"BSTAR":0.0043155031,"MEAN_MOTION_DOT":0.00059331,"MEAN_MOTION_DDOT":0},{"OBJECT_NAME":"QPS-SAR-8 (AMATERU-IV)","OBJECT_ID":"2024-149CC","EPOCH":"2026-03-09T16:54:01.213344","MEAN_MOTION":15.03026697,"ECCENTRICITY":0.0003873,"INCLINATION":97.6699,"RA_OF_ASC_NODE":148.7511,"ARG_OF_PERICENTER":93.15,"MEAN_ANOMALY":267.0168,"EPHEMERIS_TYPE":0,"CLASSIFICATION_TYPE":"U","NORAD_CAT_ID":60542,"ELEMENT_SET_NO":999,"REV_AT_EPOCH":8532,"BSTAR":0.00061811246,"MEAN_MOTION_DOT":8.268e-5,"MEAN_MOTION_DDOT":0}]
